XRISM                   
1 57800U 23137A   24199.61090659  .00007321  00000+0  54532-3 0  9991
2 57800  31.0014 178.8992 0009646 152.7525 207.3618 15.01544455 47188
